CONNECTA IOT-1          
1 60472U 24149E   26115.93972171  .00004882  00000+0  20979-3 0  9994
2 60472  97.3768 193.1270 0003655  99.5666 260.5984 15.23125174 93843
LOPEN                   
1 60473U 24149F   26115.72142144  .00015349  00000+0  41043-3 0  9996
2 60473  97.3777 198.7420 0002883  97.1114 263.0459 15.38150884 94192
ROCK                    
1 60474U 24149G   26115.77312089  .00015681  00000+0  41908-3 0  9998
2 60474  97.3771 198.8120 0003063  92.2652 267.8944 15.38161723 94206
CONNECTA IOT-3          
1 60475U 24149H   26115.76438643  .00004370  00000+0  18807-3 0  9998
2 60475  97.3743 192.7239 0004709  92.8995 267.2781 15.23130551 93823
QUBE                    
1 60476U 24149J   26115.74457496  .00024032  00000+0  51514-3 0  9993
2 60476  97.3774 201.2681 0002974  85.9329 274.2259 15.44742947 94360
WREN-1                  
1 60478U 24149L   26115.77980694  .00021218  00000+0  54178-3 0  9991
2 60478  97.3765 199.4264 0005711  97.5213 262.6682 15.39490954 94251
TOMORROW-S1             
1 60479U 24149M   26115.89484501  .00008749  00000+0  28583-3 0  9996
2 60479  97.3751 196.5616 0004245  85.4926 274.6800 15.31973289 94089
FLOCK 4BE-18            
1 60480U 24149N   26115.80764404  .00019395  00000+0  48517-3 0  9990
2 60480  97.3728 199.0589 0005047  95.2644 264.9178 15.40140489 94245
FLOCK 4BE-7             
1 60481U 24149P   26115.75471221  .00021935  00000+0  58533-3 0  9999
2 60481  97.3760 198.4655 0004294 101.1711 259.0017 15.38135187 94180
FLOCK 4BE-16            
1 60483U 24149R   26115.38234299  .09799825  25051-5  10077-2 0  9990
2 60483  97.3525 204.6221 0014776 220.0110 140.0101 16.37549160 94565
FLOCK 4BE-26            
1 60484U 24149S   26115.76573383  .00137201  00000+0  20126-2 0  9995
2 60484  97.3686 199.6671 0003137 144.2932 215.8533 15.55047170 94286
TOMORROW-S2             
1 60485U 24149T   26115.79530958  .00008013  00000+0  26198-3 0  9994
2 60485  97.3818 196.9025 0004586 100.6549 259.5209 15.31975597 94064
FLOCK 4BE-36            
1 60486U 24149U   26115.74432886  .00017321  00000+0  42095-3 0  9997
2 60486  97.3742 199.6130 0005164 103.0188 257.1635 15.41041704 94272
FLOCK 4BE-25            
1 60487U 24149V   26115.71749405  .00013713  00000+0  37543-3 0  9996
2 60487  97.3798 198.5684 0003765 100.6877 259.4792 15.37443684 94175
FLOCK 4BE-31            
1 60488U 24149W   26115.75059479  .00020587  00000+0  48309-3 0  9995
2 60488  97.3798 200.3424 0004052 106.1292 254.0402 15.42071355 94292
FLOCK 4BE-20            
1 60489U 24149X   26115.78454582  .00014679  00000+0  41183-3 0  9991
2 60489  97.3697 197.6477 0005310 101.4375 258.7466 15.36658475 94169
