[{"OBJECT_NAME":"CONNECTA IOT-1","OBJECT_ID":"2024-149E","EPOCH":"2026-04-25T22:33:11.955744","MEAN_MOTION":15.23125174,"ECCENTRICITY":0.00036557,"INCLINATION":97.3768,"RA_OF_ASC_NODE":193.127,"ARG_OF_PERICENTER":99.5666,"MEAN_ANOMALY":260.5984,"EPHEMERIS_TYPE":0,"CLASSIFICATION_TYPE":"U","NORAD_CAT_ID":60472,"ELEMENT_SET_NO":999,"REV_AT_EPOCH":9384,"BSTAR":0.00020979468,"MEAN_MOTION_DOT":4.882e-5,"MEAN_MOTION_DDOT":0},{"OBJECT_NAME":"LOPEN","OBJECT_ID":"2024-149F","EPOCH":"2026-04-25T17:18:50.812416","MEAN_MOTION":15.38150884,"ECCENTRICITY":0.00028834,"INCLINATION":97.3777,"RA_OF_ASC_NODE":198.742,"ARG_OF_PERICENTER":97.1114,"MEAN_ANOMALY":263.0459,"EPHEMERIS_TYPE":0,"CLASSIFICATION_TYPE":"U","NORAD_CAT_ID":60473,"ELEMENT_SET_NO":999,"REV_AT_EPOCH":9419,"BSTAR":0.00041043164,"MEAN_MOTION_DOT":0.00015349,"MEAN_MOTION_DDOT":0},{"OBJECT_NAME":"ROCK","OBJECT_ID":"2024-149G","EPOCH":"2026-04-25T18:33:17.644896","MEAN_MOTION":15.38161723,"ECCENTRICITY":0.00030632,"INCLINATION":97.3771,"RA_OF_ASC_NODE":198.812,"ARG_OF_PERICENTER":92.2652,"MEAN_ANOMALY":267.8944,"EPHEMERIS_TYPE":0,"CLASSIFICATION_TYPE":"U","NORAD_CAT_ID":60474,"ELEMENT_SET_NO":999,"REV_AT_EPOCH":9420,"BSTAR":0.00041908458,"MEAN_MOTION_DOT":0.00015681,"MEAN_MOTION_DDOT":0},{"OBJECT_NAME":"CONNECTA IOT-3","OBJECT_ID":"2024-149H","EPOCH":"2026-04-25T18:20:42.987552","MEAN_MOTION":15.23130551,"ECCENTRICITY":0.00047093,"INCLINATION":97.3743,"RA_OF_ASC_NODE":192.7239,"ARG_OF_PERICENTER":92.8995,"MEAN_ANOMALY":267.2781,"EPHEMERIS_TYPE":0,"CLASSIFICATION_TYPE":"U","NORAD_CAT_ID":60475,"ELEMENT_SET_NO":999,"REV_AT_EPOCH":9382,"BSTAR":0.00018806597,"MEAN_MOTION_DOT":4.37e-5,"MEAN_MOTION_DDOT":0},{"OBJECT_NAME":"QUBE","OBJECT_ID":"2024-149J","EPOCH":"2026-04-25T17:52:11.276544","MEAN_MOTION":15.44742947,"ECCENTRICITY":0.00029749,"INCLINATION":97.3774,"RA_OF_ASC_NODE":201.2681,"ARG_OF_PERICENTER":85.9329,"MEAN_ANOMALY":274.2259,"EPHEMERIS_TYPE":0,"CLASSIFICATION_TYPE":"U","NORAD_CAT_ID":60476,"ELEMENT_SET_NO":999,"REV_AT_EPOCH":9436,"BSTAR":0.00051513509,"MEAN_MOTION_DOT":0.00024032,"MEAN_MOTION_DDOT":0},{"OBJECT_NAME":"WREN-1","OBJECT_ID":"2024-149L","EPOCH":"2026-04-25T18:42:55.319616","MEAN_MOTION":15.39490954,"ECCENTRICITY":0.00057118,"INCLINATION":97.3765,"RA_OF_ASC_NODE":199.4264,"ARG_OF_PERICENTER":97.5213,"MEAN_ANOMALY":262.6682,"EPHEMERIS_TYPE":0,"CLASSIFICATION_TYPE":"U","NORAD_CAT_ID":60478,"ELEMENT_SET_NO":999,"REV_AT_EPOCH":9425,"BSTAR":0.00054177808,"MEAN_MOTION_DOT":0.00021218,"MEAN_MOTION_DDOT":0},{"OBJECT_NAME":"TOMORROW-S1","OBJECT_ID":"2024-149M","EPOCH":"2026-04-25T21:28:34.608864","MEAN_MOTION":15.31973289,"ECCENTRICITY":0.00042454,"INCLINATION":97.3751,"RA_OF_ASC_NODE":196.5616,"ARG_OF_PERICENTER":85.4926,"MEAN_ANOMALY":274.68,"EPHEMERIS_TYPE":0,"CLASSIFICATION_TYPE":"U","NORAD_CAT_ID":60479,"ELEMENT_SET_NO":999,"REV_AT_EPOCH":9408,"BSTAR":0.00028583052,"MEAN_MOTION_DOT":8.749e-5,"MEAN_MOTION_DDOT":0},{"OBJECT_NAME":"FLOCK 4BE-18","OBJECT_ID":"2024-149N","EPOCH":"2026-04-25T19:23:00.445056","MEAN_MOTION":15.40140489,"ECCENTRICITY":0.00050478,"INCLINATION":97.3728,"RA_OF_ASC_NODE":199.0589,"ARG_OF_PERICENTER":95.2644,"MEAN_ANOMALY":264.9178,"EPHEMERIS_TYPE":0,"CLASSIFICATION_TYPE":"U","NORAD_CAT_ID":60480,"ELEMENT_SET_NO":999,"REV_AT_EPOCH":9424,"BSTAR":0.00048516664,"MEAN_MOTION_DOT":0.00019395,"MEAN_MOTION_DDOT":0},{"OBJECT_NAME":"FLOCK 4BE-7","OBJECT_ID":"2024-149P","EPOCH":"2026-04-25T18:06:47.134944","MEAN_MOTION":15.38135187,"ECCENTRICITY":0.00042942,"INCLINATION":97.376,"RA_OF_ASC_NODE":198.4655,"ARG_OF_PERICENTER":101.1711,"MEAN_ANOMALY":259.0017,"EPHEMERIS_TYPE":0,"CLASSIFICATION_TYPE":"U","NORAD_CAT_ID":60481,"ELEMENT_SET_NO":999,"REV_AT_EPOCH":9418,"BSTAR":0.00058532634,"MEAN_MOTION_DOT":0.00021935,"MEAN_MOTION_DDOT":0},{"OBJECT_NAME":"FLOCK 4BE-16","OBJECT_ID":"2024-149R","EPOCH":"2026-04-25T09:10:34.434336","MEAN_MOTION":16.3754916,"ECCENTRICITY":0.00147762,"INCLINATION":97.3525,"RA_OF_ASC_NODE":204.6221,"ARG_OF_PERICENTER":220.011,"MEAN_ANOMALY":140.0101,"EPHEMERIS_TYPE":0,"CLASSIFICATION_TYPE":"U","NORAD_CAT_ID":60483,"ELEMENT_SET_NO":999,"REV_AT_EPOCH":9456,"BSTAR":0.001007666,"MEAN_MOTION_DOT":0.09799825,"MEAN_MOTION_DDOT":2.505147e-6},{"OBJECT_NAME":"FLOCK 4BE-26","OBJECT_ID":"2024-149S","EPOCH":"2026-04-25T18:22:39.402912","MEAN_MOTION":15.5504717,"ECCENTRICITY":0.0003137,"INCLINATION":97.3686,"RA_OF_ASC_NODE":199.6671,"ARG_OF_PERICENTER":144.2932,"MEAN_ANOMALY":215.8533,"EPHEMERIS_TYPE":0,"CLASSIFICATION_TYPE":"U","NORAD_CAT_ID":60484,"ELEMENT_SET_NO":999,"REV_AT_EPOCH":9428,"BSTAR":0.0020125753,"MEAN_MOTION_DOT":0.00137201,"MEAN_MOTION_DDOT":0},{"OBJECT_NAME":"TOMORROW-S2","OBJECT_ID":"2024-149T","EPOCH":"2026-04-25T19:05:14.747712","MEAN_MOTION":15.31975597,"ECCENTRICITY":0.00045862,"INCLINATION":97.3818,"RA_OF_ASC_NODE":196.9025,"ARG_OF_PERICENTER":100.6549,"MEAN_ANOMALY":259.5209,"EPHEMERIS_TYPE":0,"CLASSIFICATION_TYPE":"U","NORAD_CAT_ID":60485,"ELEMENT_SET_NO":999,"REV_AT_EPOCH":9406,"BSTAR":0.00026197696,"MEAN_MOTION_DOT":8.013e-5,"MEAN_MOTION_DDOT":0},{"OBJECT_NAME":"FLOCK 4BE-36","OBJECT_ID":"2024-149U","EPOCH":"2026-04-25T17:51:50.013504","MEAN_MOTION":15.41041704,"ECCENTRICITY":0.00051648,"INCLINATION":97.3742,"RA_OF_ASC_NODE":199.613,"ARG_OF_PERICENTER":103.0188,"MEAN_ANOMALY":257.1635,"EPHEMERIS_TYPE":0,"CLASSIFICATION_TYPE":"U","NORAD_CAT_ID":60486,"ELEMENT_SET_NO":999,"REV_AT_EPOCH":9427,"BSTAR":0.00042094802,"MEAN_MOTION_DOT":0.00017321,"MEAN_MOTION_DDOT":0},{"OBJECT_NAME":"FLOCK 4BE-25","OBJECT_ID":"2024-149V","EPOCH":"2026-04-25T17:13:11.485920","MEAN_MOTION":15.37443684,"ECCENTRICITY":0.00037652,"INCLINATION":97.3798,"RA_OF_ASC_NODE":198.5684,"ARG_OF_PERICENTER":100.6877,"MEAN_ANOMALY":259.4792,"EPHEMERIS_TYPE":0,"CLASSIFICATION_TYPE":"U","NORAD_CAT_ID":60487,"ELEMENT_SET_NO":999,"REV_AT_EPOCH":9417,"BSTAR":0.00037542607,"MEAN_MOTION_DOT":0.00013713,"MEAN_MOTION_DDOT":0},{"OBJECT_NAME":"FLOCK 4BE-31","OBJECT_ID":"2024-149W","EPOCH":"2026-04-25T18:00:51.389856","MEAN_MOTION":15.42071355,"ECCENTRICITY":0.00040527,"INCLINATION":97.3798,"RA_OF_ASC_NODE":200.3424,"ARG_OF_PERICENTER":106.1292,"MEAN_ANOMALY":254.0402,"EPHEMERIS_TYPE":0,"CLASSIFICATION_TYPE":"U","NORAD_CAT_ID":60488,"ELEMENT_SET_NO":999,"REV_AT_EPOCH":9429,"BSTAR":0.00048309031,"MEAN_MOTION_DOT":0.00020587,"MEAN_MOTION_DDOT":0},{"OBJECT_NAME":"FLOCK 4BE-20","OBJECT_ID":"2024-149X","EPOCH":"2026-04-25T18:49:44.758848","MEAN_MOTION":15.36658475,"ECCENTRICITY":0.00053107,"INCLINATION":97.3697,"RA_OF_ASC_NODE":197.6477,"ARG_OF_PERICENTER":101.4375,"MEAN_ANOMALY":258.7466,"EPHEMERIS_TYPE":0,"CLASSIFICATION_TYPE":"U","NORAD_CAT_ID":60489,"ELEMENT_SET_NO":999,"REV_AT_EPOCH":9416,"BSTAR":0.00041182751,"MEAN_MOTION_DOT":0.00014679,"MEAN_MOTION_DDOT":0}]
